{
  "norad_id": 44076,
  "name": "TIANLIAN 2-01",
  "history": [
    {
      "epoch": "2026-05-06T20:35:34.795104Z",
      "apogee_km": 35791.73759825016,
      "perigee_km": 35781.061537591166,
      "latitude_deg": 0.08180188038833108,
      "longitude_deg": 77.01409779797139,
      "height_km": 35789.38102132127,
      "semi_major_axis_km": 42164.536567920666,
      "eccentricity": 0.0001266,
      "inclination_deg": 0.4328,
      "raan_deg": 82.8809,
      "arg_perigee_deg": 298.4002,
      "mean_anomaly_deg": 229.3577,
      "mean_motion_rev_day": 1.00272482
    },
    {
      "epoch": "2026-05-07T19:08:38.764032Z",
      "apogee_km": 35791.612732160014,
      "perigee_km": 35781.23181766653,
      "latitude_deg": 0.2231150904058138,
      "longitude_deg": 77.02105708998728,
      "height_km": 35790.47140099285,
      "semi_major_axis_km": 42164.55927491328,
      "eccentricity": 0.0001231,
      "inclination_deg": 0.435,
      "raan_deg": 82.8881,
      "arg_perigee_deg": 298.5782,
      "mean_anomaly_deg": 208.3678,
      "mean_motion_rev_day": 1.00272401
    },
    {
      "epoch": "2026-05-07T23:43:37.350336Z",
      "apogee_km": 35791.59248223282,
      "perigee_km": 35781.26047759771,
      "latitude_deg": -0.24948937182536535,
      "longitude_deg": 77.01288829626523,
      "height_km": 35785.35432800683,
      "semi_major_axis_km": 42164.56347991527,
      "eccentricity": 0.00012252,
      "inclination_deg": 0.4355,
      "raan_deg": 82.893,
      "arg_perigee_deg": 299.0605,
      "mean_anomaly_deg": 276.8136,
      "mean_motion_rev_day": 1.00272386
    },
    {
      "epoch": "2026-05-10T20:40:45.784992Z",
      "apogee_km": 35791.11970394291,
      "perigee_km": 35781.92780789812,
      "latitude_deg": 0.049697309097556576,
      "longitude_deg": 77.02025725544944,
      "height_km": 35788.65399151287,
      "semi_major_axis_km": 42164.66075592052,
      "eccentricity": 0.000109,
      "inclination_deg": 0.4426,
      "raan_deg": 82.915,
      "arg_perigee_deg": 297.8202,
      "mean_anomaly_deg": 235.1552,
      "mean_motion_rev_day": 1.00272039
    },
    {
      "epoch": "2026-05-11T20:07:48.006048Z",
      "apogee_km": 35790.998135619855,
      "perigee_km": 35782.151979030226,
      "latitude_deg": 0.10335142632422929,
      "longitude_deg": 77.02076073181993,
      "height_km": 35788.98300115247,
      "semi_major_axis_km": 42164.71205732504,
      "eccentricity": 0.0001049,
      "inclination_deg": 0.4451,
      "raan_deg": 82.9227,
      "arg_perigee_deg": 296.8367,
      "mean_anomaly_deg": 228.8543,
      "mean_motion_rev_day": 1.00271856
    },
    {
      "epoch": "2026-05-12T20:05:11.890752Z",
      "apogee_km": 35790.86419796818,
      "perigee_km": 35782.38908047669,
      "latitude_deg": 0.10062400064166328,
      "longitude_deg": 77.01959509711811,
      "height_km": 35788.82875658092,
      "semi_major_axis_km": 42164.76363922244,
      "eccentricity": 0.0001005,
      "inclination_deg": 0.4478,
      "raan_deg": 82.9296,
      "arg_perigee_deg": 295.6597,
      "mean_anomaly_deg": 230.3582,
      "mean_motion_rev_day": 1.00271672
    },
    {
      "epoch": "2026-05-13T20:02:28.465152Z",
      "apogee_km": 35790.74150764144,
      "perigee_km": 35782.61213153702,
      "latitude_deg": 0.09716696863759498,
      "longitude_deg": 77.01836157398621,
      "height_km": 35788.69968170919,
      "semi_major_axis_km": 42164.81381958923,
      "eccentricity": 9.64e-05,
      "inclination_deg": 0.4506,
      "raan_deg": 82.9378,
      "arg_perigee_deg": 294.6864,
      "mean_anomaly_deg": 231.6259,
      "mean_motion_rev_day": 1.00271493
    },
    {
      "epoch": "2026-05-14T02:53:08.686752Z",
      "apogee_km": 35790.65868585782,
      "perigee_km": 35782.72410845005,
      "latitude_deg": -0.429069866197464,
      "longitude_deg": 77.0216791972606,
      "height_km": 35782.65210990577,
      "semi_major_axis_km": 42164.82839715394,
      "eccentricity": 9.409e-05,
      "inclination_deg": 0.4514,
      "raan_deg": 82.9356,
      "arg_perigee_deg": 294.5829,
      "mean_anomaly_deg": 334.6803,
      "mean_motion_rev_day": 1.00271441
    }
  ]
}